[
    {
        "id": 1,
        "districtId": 1,
        "divisionId": 1,
        "has_subarea": false,
        "name": "Adamdighi",
        "bn_name": "আদমদিঘী"
    },
    {
        "id": 2,
        "districtId": 1,
        "divisionId": 1,
        "has_subarea": false,
        "name": "Bogra Sadar",
        "bn_name": "বগুড়া সদর"
    },
    {
        "id": 3,
        "districtId": 1,
        "divisionId": 1,
        "has_subarea": false,
        "name": "Dhubchanchia",
        "bn_name": "দুপচাঁচিয়া"
    },
    {
        "id": 4,
        "districtId": 1,
        "divisionId": 1,
        "has_subarea": false,
        "name": "Dhunat",
        "bn_name": "ধুনট"
    },
    {
        "id": 5,
        "districtId": 1,
        "divisionId": 1,
        "has_subarea": false,
        "name": "Gabtali",
        "bn_name": "গাবতলী"
    },
    {
        "id": 6,
        "districtId": 1,
        "divisionId": 1,
        "has_subarea": false,
        "name": "Kahaloo",
        "bn_name": "কাহালু"
    },
    {
        "id": 7,
        "districtId": 1,
        "divisionId": 1,
        "has_subarea": false,
        "name": "Nandigram",
        "bn_name": "নন্দীগ্রাম"
    },
    {
        "id": 8,
        "districtId": 1,
        "divisionId": 1,
        "has_subarea": false,
        "name": "Sariakandi",
        "bn_name": "সারিয়াকান্দি"
    },
    {
        "id": 9,
        "districtId": 1,
        "divisionId": 1,
        "has_subarea": false,
        "name": "Shajahanpur",
        "bn_name": "শাজাহানপুর"
    },
    {
        "id": 10,
        "districtId": 1,
        "divisionId": 1,
        "has_subarea": false,
        "name": "Sherpur",
        "bn_name": "শেরপুর"
    },
    {
        "id": 11,
        "districtId": 1,
        "divisionId": 1,
        "has_subarea": false,
        "name": "Shibganj",
        "bn_name": "শিবগঞ্জ"
    },
    {
        "id": 12,
        "districtId": 1,
        "divisionId": 1,
        "has_subarea": false,
        "name": "Sonatola",
        "bn_name": "সোনাতলা"
    },
    {
        "id": 13,
        "districtId": 2,
        "divisionId": 1,
        "has_subarea": false,
        "name": "Bholahat",
        "bn_name": "ভোলাহাট"
    },
    {
        "id": 14,
        "districtId": 2,
        "divisionId": 1,
        "has_subarea": false,
        "name": "Chapainawabganj Sadar",
        "bn_name": "চাঁপাইনবাবগঞ্জ সদর"
    },
    {
        "id": 15,
        "districtId": 2,
        "divisionId": 1,
        "has_subarea": false,
        "name": "Gomostapur",
        "bn_name": "গোমস্তাপুর"
    },
    {
        "id": 16,
        "districtId": 2,
        "divisionId": 1,
        "has_subarea": false,
        "name": "Nachol",
        "bn_name": "নাচোল"
    },
    {
        "id": 17,
        "districtId": 2,
        "divisionId": 1,
        "has_subarea": false,
        "name": "Shibganj",
        "bn_name": "শিবগঞ্জ"
    },
    {
        "id": 18,
        "districtId": 3,
        "divisionId": 1,
        "has_subarea": false,
        "name": "Akklepur",
        "bn_name": "আক্কেলপুর"
    },
    {
        "id": 19,
        "districtId": 3,
        "divisionId": 1,
        "has_subarea": false,
        "name": "Joypurhat Sadar",
        "bn_name": "জয়পুরহাট সদর"
    },
    {
        "id": 20,
        "districtId": 3,
        "divisionId": 1,
        "has_subarea": false,
        "name": "Kalai",
        "bn_name": "কালাই"
    },
    {
        "id": 21,
        "districtId": 3,
        "divisionId": 1,
        "has_subarea": false,
        "name": "Khetlal",
        "bn_name": "ক্ষেতলাল"
    },
    {
        "id": 22,
        "districtId": 3,
        "divisionId": 1,
        "has_subarea": false,
        "name": "Panchbibi",
        "bn_name": "পাঁচবিবি"
    },
    {
        "id": 23,
        "districtId": 4,
        "divisionId": 1,
        "has_subarea": false,
        "name": "Atrai",
        "bn_name": "আত্রাই"
    },
    {
        "id": 24,
        "districtId": 4,
        "divisionId": 1,
        "has_subarea": false,
        "name": "Badalgachhi",
        "bn_name": "বদলগাছি"
    },
    {
        "id": 25,
        "districtId": 4,
        "divisionId": 1,
        "has_subarea": false,
        "name": "Dhamuirhat",
        "bn_name": "ধামইরহাট"
    },
    {
        "id": 26,
        "districtId": 4,
        "divisionId": 1,
        "has_subarea": false,
        "name": "Mahadebpur",
        "bn_name": "মহাদেবপুর"
    },
    {
        "id": 27,
        "districtId": 4,
        "divisionId": 1,
        "has_subarea": false,
        "name": "Manda",
        "bn_name": "মান্দা"
    },
    {
        "id": 28,
        "districtId": 4,
        "divisionId": 1,
        "has_subarea": false,
        "name": "Naogaon Sadar",
        "bn_name": "নওগাঁ সদর"
    },
    {
        "id": 29,
        "districtId": 4,
        "divisionId": 1,
        "has_subarea": false,
        "name": "Niamatpur",
        "bn_name": "নিয়ামতপুর"
    },
    {
        "id": 30,
        "districtId": 4,
        "divisionId": 1,
        "has_subarea": false,
        "name": "Patnitala",
        "bn_name": "পত্নীতলা"
    },
    {
        "id": 31,
        "districtId": 4,
        "divisionId": 1,
        "has_subarea": false,
        "name": "Porsa",
        "bn_name": "পোরশা"
    },
    {
        "id": 32,
        "districtId": 4,
        "divisionId": 1,
        "has_subarea": false,
        "name": "Raninagar",
        "bn_name": "রাণীনগর"
    },
    {
        "id": 33,
        "districtId": 4,
        "divisionId": 1,
        "has_subarea": false,
        "name": "Sapahar",
        "bn_name": "সাপাহার"
    },
    {
        "id": 34,
        "districtId": 5,
        "divisionId": 1,
        "has_subarea": false,
        "name": "Bagatipara",
        "bn_name": "বাগাতিপাড়া"
    },
    {
        "id": 35,
        "districtId": 5,
        "divisionId": 1,
        "has_subarea": false,
        "name": "Baraigram",
        "bn_name": "বড়াইগ্রাম"
    },
    {
        "id": 36,
        "districtId": 5,
        "divisionId": 1,
        "has_subarea": false,
        "name": "Digapatia",
        "bn_name": "দিঘাপতিয়া"
    },
    {
        "id": 37,
        "districtId": 5,
        "divisionId": 1,
        "has_subarea": false,
        "name": "Gurudaspur",
        "bn_name": "গুরুদাসপুর"
    },
    {
        "id": 38,
        "districtId": 5,
        "divisionId": 1,
        "has_subarea": false,
        "name": "Lalpur",
        "bn_name": "লালপুর"
    },
    {
        "id": 39,
        "districtId": 5,
        "divisionId": 1,
        "has_subarea": false,
        "name": "Madhnagar",
        "bn_name": "মাধনগর"
    },
    {
        "id": 40,
        "districtId": 5,
        "divisionId": 1,
        "has_subarea": false,
        "name": "Natore Sadar",
        "bn_name": "নাটোর সদর"
    },
    {
        "id": 41,
        "districtId": 5,
        "divisionId": 1,
        "has_subarea": false,
        "name": "Singra",
        "bn_name": "সিংড়া"
    },
    {
        "id": 42,
        "districtId": 6,
        "divisionId": 1,
        "has_subarea": false,
        "name": "Atghoria",
        "bn_name": "আটঘরিয়া"
    },
    {
        "id": 43,
        "districtId": 6,
        "divisionId": 1,
        "has_subarea": false,
        "name": "Bera",
        "bn_name": "বেড়া"
    },
    {
        "id": 44,
        "districtId": 6,
        "divisionId": 1,
        "has_subarea": false,
        "name": "Bhangura",
        "bn_name": "ভাঙ্গুড়া"
    },
    {
        "id": 45,
        "districtId": 6,
        "divisionId": 1,
        "has_subarea": false,
        "name": "Chatmohar",
        "bn_name": "চাটমোহর"
    },
    {
        "id": 46,
        "districtId": 6,
        "divisionId": 1,
        "has_subarea": false,
        "name": "Faridpur",
        "bn_name": "ফরিদপুর"
    },
    {
        "id": 47,
        "districtId": 6,
        "divisionId": 1,
        "has_subarea": false,
        "name": "Ishurdi",
        "bn_name": "ঈশ্বরদী"
    },
    {
        "id": 48,
        "districtId": 6,
        "divisionId": 1,
        "has_subarea": false,
        "name": "Pabna Sadar",
        "bn_name": "পাবনা সদর"
    },
    {
        "id": 49,
        "districtId": 6,
        "divisionId": 1,
        "has_subarea": false,
        "name": "Santhia",
        "bn_name": "সাঁথিয়া"
    },
    {
        "id": 50,
        "districtId": 6,
        "divisionId": 1,
        "has_subarea": false,
        "name": "Sujanagar",
        "bn_name": "সুজানগর"
    },
    {
        "id": 51,
        "districtId": 7,
        "divisionId": 1,
        "has_subarea": false,
        "name": "Bagha",
        "bn_name": "বাঘা"
    },
    {
        "id": 52,
        "districtId": 7,
        "divisionId": 1,
        "has_subarea": false,
        "name": "Bagmara",
        "bn_name": "বাগমারা"
    },
    {
        "id": 53,
        "districtId": 7,
        "divisionId": 1,
        "has_subarea": false,
        "name": "Charghat",
        "bn_name": "চারঘাট"
    },
    {
        "id": 54,
        "districtId": 7,
        "divisionId": 1,
        "has_subarea": false,
        "name": "Durgapur",
        "bn_name": "দুর্গাপুর"
    },
    {
        "id": 55,
        "districtId": 7,
        "divisionId": 1,
        "has_subarea": false,
        "name": "Godagari",
        "bn_name": "গোদাগাড়ী"
    },
    {
        "id": 56,
        "districtId": 7,
        "divisionId": 1,
        "has_subarea": false,
        "name": "Mohonpur",
        "bn_name": "মোহনপুর"
    },
    {
        "id": 57,
        "districtId": 7,
        "divisionId": 1,
        "has_subarea": false,
        "name": "Paba",
        "bn_name": "পবা"
    },
    {
        "id": 58,
        "districtId": 7,
        "divisionId": 1,
        "has_subarea": false,
        "name": "Puthia",
        "bn_name": "পুঠিয়া"
    },
    {
        "id": 59,
        "districtId": 7,
        "divisionId": 1,
        "has_subarea": false,
        "name": "Tanore",
        "bn_name": "তানোর"
    },
    {
        "id": 60,
        "districtId": 8,
        "divisionId": 1,
        "has_subarea": false,
        "name": "Belkuchi",
        "bn_name": "বেলকুচি"
    },
    {
        "id": 61,
        "districtId": 8,
        "divisionId": 1,
        "has_subarea": false,
        "name": "Chauhali",
        "bn_name": "চৌহালী"
    },
    {
        "id": 62,
        "districtId": 8,
        "divisionId": 1,
        "has_subarea": false,
        "name": "Kamarkhand",
        "bn_name": "কামারখন্দ"
    },
    {
        "id": 63,
        "districtId": 8,
        "divisionId": 1,
        "has_subarea": false,
        "name": "Kazipur",
        "bn_name": "কাজীপুর"
    },
    {
        "id": 64,
        "districtId": 8,
        "divisionId": 1,
        "has_subarea": false,
        "name": "Raigonj",
        "bn_name": "রায়গঞ্জ"
    },
    {
        "id": 65,
        "districtId": 8,
        "divisionId": 1,
        "has_subarea": false,
        "name": "Shahjadpur",
        "bn_name": "শাহজাদপুর"
    },
    {
        "id": 66,
        "districtId": 8,
        "divisionId": 1,
        "has_subarea": false,
        "name": "Sirajganj Sadar",
        "bn_name": "সিরাজগঞ্জ সদর"
    },
    {
        "id": 67,
        "districtId": 8,
        "divisionId": 1,
        "has_subarea": false,
        "name": "Tarash",
        "bn_name": "তাড়াশ"
    },
    {
        "id": 68,
        "districtId": 8,
        "divisionId": 1,
        "has_subarea": false,
        "name": "Ullapara",
        "bn_name": "উল্লাপাড়া"
    }
]